[{"OBJECT_NAME":"STARLINK-6227","OBJECT_ID":"2023-088N","EPOCH":"2026-03-09T03:28:55.173792","MEAN_MOTION":15.02534471,"ECCENTRICITY":0.00012564,"INCLINATION":43.0035,"RA_OF_ASC_NODE":110.7838,"ARG_OF_PERICENTER":277.6111,"MEAN_ANOMALY":82.4589,"EPHEMERIS_TYPE":0,"CLASSIFICATION_TYPE":"U","NORAD_CAT_ID":57060,"ELEMENT_SET_NO":999,"REV_AT_EPOCH":15028,"BSTAR":-1.5274985e-5,"MEAN_MOTION_DOT":-4.1e-6,"MEAN_MOTION_DDOT":0},{"OBJECT_NAME":"NOAA 16 DEB","OBJECT_ID":"2000-055NX","EPOCH":"2026-03-08T23:11:13.556832","MEAN_MOTION":15.01016664,"ECCENTRICITY":0.00157984,"INCLINATION":98.8636,"RA_OF_ASC_NODE":259.6913,"ARG_OF_PERICENTER":295.8562,"MEAN_ANOMALY":64.1029,"EPHEMERIS_TYPE":0,"CLASSIFICATION_TYPE":"U","NORAD_CAT_ID":41658,"ELEMENT_SET_NO":999,"REV_AT_EPOCH":9741,"BSTAR":0.010110988,"MEAN_MOTION_DOT":0.00131742,"MEAN_MOTION_DDOT":0}]
